OBJECT_NAME,OBJECT_ID,EPOCH,MEAN_MOTION,ECCENTRICITY,INCLINATION,RA_OF_ASC_NODE,ARG_OF_PERICENTER,MEAN_ANOMALY,EPHEMERIS_TYPE,CLASSIFICATION_TYPE,NORAD_CAT_ID,ELEMENT_SET_NO,REV_AT_EPOCH,BSTAR,MEAN_MOTION_DOT,MEAN_MOTION_DDOT
NUVIEW BRAVO,2024-252D,2026-06-14T12:42:42.505632,1.00270308,.00018155,0.0697,149.7979,333.3877,247.2041,0,U,62457,999,376,0,-.208E-5,0
THURAYA-4,2025-001A,2026-06-14T15:01:42.924000,1.00271886,.00002596,0.0228,58.4786,207.7390,266.4443,0,U,62483,999,415,0,.146E-5,0
SHIJIAN-25 (SJ-25),2025-002A,2026-06-14T17:51:56.299104,1.00268788,.0052265,5.1074,61.1793,173.3034,63.8582,0,U,62485,999,533,0,-.348E-5,0
TJS-14,2025-017A,2026-06-14T14:54:21.131424,1.00273129,.0000974,0.7886,295.4424,290.2619,279.1765,0,U,62804,999,524,0,.123E-5,0
SPAINSAT NG I,2025-021A,2026-06-14T11:31:52.615776,1.00269636,.0000242,0.0160,338.7746,285.1401,200.8359,0,U,62852,999,396,0,.159E-5,0
QZS-6 (MICHIBIKI-6),2025-023A,2026-06-14T14:46:18.653088,1.00271305,.00017023,0.0476,67.3562,22.9708,124.6881,0,U,62876,999,492,0,-.227E-5,0
ZHONGXING-10R,2025-036A,2026-06-14T15:03:42.787584,1.00272920,.00034626,0.0313,246.8705,253.8103,98.6990,0,U,63075,999,493,0,-.345E-5,0
TJS-15,2025-045A,2026-06-14T18:29:34.981728,1.00272135,.0004664,0.2791,85.5342,296.2276,253.0916,0,U,63157,999,473,0,-.259E-5,0
TIANLIAN 2-04,2025-062A,2026-06-14T10:03:48.606912,1.00271692,.00317421,4.3821,274.4821,10.3628,208.8780,0,U,63361,999,457,0,-.124E-5,0
TJS-16,2025-064A,2026-06-14T17:26:02.362272,1.00271304,.0003354,1.0918,81.4683,288.7464,314.9259,0,U,63397,999,436,0,-.1E-5,0
TJS-17,2025-073A,2026-06-14T17:04:08.449824,1.00271885,.0002078,1.0576,82.7133,295.5126,305.3480,0,U,63524,999,426,0,-.64E-6,0
TIANLIAN 2-05,2025-084A,2026-06-14T14:54:51.082848,1.00269233,.00030917,4.4579,279.8661,146.2268,80.8988,0,U,63662,999,435,0,.134E-5,0
TJS-19,2025-097A,2026-06-14T18:12:15.816960,1.00266243,.0002317,3.2906,317.4031,241.3714,118.5316,0,U,63924,999,411,0,-.27E-5,0
CHINASAT 3B,2025-106A,2026-06-14T17:19:27.282720,1.00270428,.000291,0.0191,82.6045,42.5518,205.0456,0,U,64062,999,403,0,-.39E-6,0
SXM-10,2025-122A,2026-06-14T14:15:54.815616,1.00274164,.0001668,0.0176,17.4386,347.0470,356.2189,0,U,64290,999,365,0,-.1E-6,0
COSMOS 2589,2025-131A,2026-06-14T18:14:15.837792,1.00268355,.0000384,0.0377,81.7012,104.6528,88.2208,0,U,64467,999,353,0,-.284E-5,0
CHINASAT 9C,2025-132A,2026-06-14T14:46:41.041056,1.00268334,.00025237,0.0177,354.1030,88.5367,134.1487,0,U,64470,999,412,0,0,0
MTG-S1,2025-143A,2026-06-14T14:48:06.729120,1.00271769,.00009863,0.6054,338.3400,11.0301,132.0992,0,U,64723,999,339,0,-.25E-6,0
DROR 1,2025-148A,2026-06-14T14:47:59.240832,1.00271731,.00025328,0.0284,56.5114,331.6474,92.7478,0,U,64784,999,327,0,-.28E-6,0
SHIYAN-29,2025-196A,2026-06-09T01:48:31.441824,1.00256520,.00109724,28.8121,18.6391,171.7452,188.2752,0,U,65486,999,279,0,-.259E-5,0
NUSANTARA LIMA (NUSANTARA 5),2025-205A,2026-06-14T13:38:36.378240,1.00288602,.00007498,0.0403,135.6856,200.0914,244.6073,0,U,65588,999,269,0,-.351E-5,0
TJS-20,2025-238A,2026-06-14T11:41:29.194944,1.00273665,.00045022,5.4758,299.5661,162.0999,38.9141,0,U,66142,999,230,0,.35E-6,0
CMS-03 (GSAT-7R),2025-249B,2026-06-14T13:27:30.710304,1.00270224,.00014824,0.0179,357.2980,83.5035,97.9228,0,U,66311,999,232,0,0,0
VIASAT-3 F2,2025-261A,2026-06-14T14:26:31.299360,1.00271296,.00001368,0.0513,158.2746,130.5402,111.7385,0,U,66454,999,276,0,-.227E-5,0
SHIJIAN-28 (SJ-28),2025-277A,2026-06-14T15:41:03.263136,1.00263814,.00008166,4.5450,272.1762,348.3379,354.4501,0,U,66549,999,212,0,-.349E-5,0
TJS-22,2025-290A,2026-06-13T21:14:22.513056,1.00273078,.00019071,1.5364,286.5245,330.6988,30.0313,0,U,66990,999,199,0,.4E-7,0
TJS-23,2025-306A,2026-06-13T14:40:47.951040,1.00274515,.00053675,5.5959,297.5066,169.3780,190.7656,0,U,67226,999,185,0,.31E-6,0
FENGYUN 4C,2025-312A,2026-06-14T13:44:20.827392,1.00270360,.00005795,0.0411,145.6788,63.3294,32.9401,0,U,67246,999,175,0,-.316E-5,0
SHIJIAN-29A (SJ-29A),2025-315A,2026-06-14T18:15:54.847872,1.00269549,.0003095,3.3915,95.1686,25.5358,129.5319,0,U,67302,999,159,0,-.63E-6,0
SHIJIAN-29B (SJ-29B),2025-315C,2026-06-14T18:21:39.894048,1.00269354,.0003698,3.3904,95.1610,33.0793,123.4787,0,U,67403,999,166,0,-.64E-6,0
ELEKTRO-L 5,2026-028A,2026-06-14T01:26:27.725568,1.00271153,.00017512,0.2571,310.4463,180.7679,228.8062,0,U,67756,999,122,0,-.88E-6,0
JAM-E JAM 1,2026-028B,2026-06-14T14:58:43.212000,1.00274157,.00012126,0.2657,301.5654,299.3294,280.6337,0,U,67757,999,109,0,.163E-5,0
