{"id":"62457","noradId":"62457","name":"NUVIEW BRAVO","line1":"1 62457U 24252D   26165.52965863 -.00000208  00000+0  00000+0 0  9992","line2":"2 62457   0.0697 149.7979 0001815 333.3877 247.2041  1.00270308  3760","kind":"satellite","owner":"United Kingdom","country":"United Kingdom","countryCode":"UK","objectType":"PAYLOAD","intlDesignator":"2024-252D","launchDate":"2024-12-29","periodMinutes":1436.11,"inclinationDeg":0.07,"apogeeKm":35794,"perigeeKm":35779,"source":"offline","sourceUrl":"https://celestrak.org/NORAD/elements/gp.php?GROUP=geo&FORMAT=tle","tleEpochUtc":"2026-06-14T12:42:42.505Z","orbitClass":"GEO"},{"id":"62483","noradId":"62483","name":"THURAYA-4","line1":"1 62483U 25001A   26165.62619125  .00000146  00000+0  00000+0 0  9992","line2":"2 62483   0.0228  58.4786 0000259 207.7390 266.4443  1.00271886  4151","kind":"satellite","owner":"UAE","country":"UAE","countryCode":"UAE","objectType":"PAYLOAD","intlDesignator":"2025-001A","launchDate":"2025-01-04","periodMinutes":1436.09,"inclinationDeg":0.03,"apogeeKm":35787,"perigeeKm":35785,"source":"offline","sourceUrl":"https://celestrak.org/NORAD/elements/gp.php?GROUP=geo&FORMAT=tle","tleEpochUtc":"2026-06-14T15:01:42.924Z","orbitClass":"GEO"},{"id":"62485","noradId":"62485","name":"SHIJIAN-25 (SJ-25)","line1":"1 62485U 25002A   26165.74440161 -.00000348  00000+0  00000+0 0  9995","line2":"2 62485   5.1074  61.1793 0052265 173.3034  63.8582  1.00268788  5335","kind":"satellite","owner":"China (CNSA)","country":"China (CNSA)","countryCode":"PRC","objectType":"PAYLOAD","intlDesignator":"2025-002A","launchDate":"2025-01-06","periodMinutes":1436.13,"inclinationDeg":5.1,"apogeeKm":36008,"perigeeKm":35567,"source":"offline","sourceUrl":"https://celestrak.org/NORAD/elements/gp.php?GROUP=geo&FORMAT=tle","tleEpochUtc":"2026-06-14T17:51:56.299Z","orbitClass":"GEO"},{"id":"62804","noradId":"62804","name":"TJS-14","line1":"1 62804U 25017A   26165.62107791  .00000123  00000+0  00000+0 0  9992","line2":"2 62804   0.7886 295.4424 0000974 290.2619 279.1765  1.00273129  5243","kind":"satellite","owner":"China (CNSA)","country":"China (CNSA)","countryCode":"PRC","objectType":"PAYLOAD","intlDesignator":"2025-017A","launchDate":"2025-01-23","periodMinutes":1436.08,"inclinationDeg":0.79,"apogeeKm":35790,"perigeeKm":35782,"source":"offline","sourceUrl":"https://celestrak.org/NORAD/elements/gp.php?GROUP=geo&FORMAT=tle","tleEpochUtc":"2026-06-14T14:54:21.131Z","orbitClass":"GEO"},{"id":"62852","noradId":"62852","name":"SPAINSAT NG I","line1":"1 62852U 25021A   26165.48047009  .00000159  00000+0  00000+0 0  9998","line2":"2 62852   0.0160 338.7746 0000242 285.1401 200.8359  1.00269636  3967","kind":"satellite","owner":"SPN","country":"SPN","countryCode":"SPN","objectType":"PAYLOAD","intlDesignator":"2025-021A","launchDate":"2025-01-30","periodMinutes":1436.11,"inclinationDeg":0.01,"apogeeKm":35788,"perigeeKm":35785,"source":"offline","sourceUrl":"https://celestrak.org/NORAD/elements/gp.php?GROUP=geo&FORMAT=tle","tleEpochUtc":"2026-06-14T11:31:52.615Z","orbitClass":"GEO"},{"id":"62876","noradId":"62876","name":"QZS-6 (MICHIBIKI-6)","line1":"1 62876U 25023A   26165.61549367 -.00000227  00000+0  00000+0 0  9992","line2":"2 62876   0.0476  67.3562 0001702  22.9708 124.6881  1.00271305  4929","kind":"satellite","owner":"Japan (JAXA)","country":"Japan (JAXA)","countryCode":"JPN","objectType":"PAYLOAD","intlDesignator":"2025-023A","launchDate":"2025-02-02","periodMinutes":1436.1,"inclinationDeg":0.04,"apogeeKm":35794,"perigeeKm":35779,"source":"offline","sourceUrl":"https://celestrak.org/NORAD/elements/gp.php?GROUP=geo&FORMAT=tle","tleEpochUtc":"2026-06-14T14:46:18.653Z","orbitClass":"GEO"},{"id":"63075","noradId":"63075","name":"ZHONGXING-10R","line1":"1 63075U 25036A   26165.62757856 -.00000345  00000+0  00000+0 0  9994","line2":"2 63075   0.0313 246.8705 0003462 253.8103  98.6990  1.00272920  4939","kind":"satellite","owner":"China (CNSA)","country":"China (CNSA)","countryCode":"PRC","objectType":"PAYLOAD","intlDesignator":"2025-036A","launchDate":"2025-02-22","periodMinutes":1436.07,"inclinationDeg":0.03,"apogeeKm":35801,"perigeeKm":35772,"source":"offline","sourceUrl":"https://celestrak.org/NORAD/elements/gp.php?GROUP=geo&FORMAT=tle","tleEpochUtc":"2026-06-14T15:03:42.787Z","orbitClass":"GEO"},{"id":"63157","noradId":"63157","name":"TJS-15","line1":"1 63157U 25045A   26165.77054377 -.00000259  00000+0  00000+0 0  9993","line2":"2 63157   0.2791  85.5342 0004664 296.2276 253.0916  1.00272135  4735","kind":"satellite","owner":"China (CNSA)","country":"China (CNSA)","countryCode":"PRC","objectType":"PAYLOAD","intlDesignator":"2025-045A","launchDate":"2025-03-09","periodMinutes":1436.09,"inclinationDeg":0.28,"apogeeKm":35806,"perigeeKm":35767,"source":"offline","sourceUrl":"https://celestrak.org/NORAD/elements/gp.php?GROUP=geo&FORMAT=tle","tleEpochUtc":"2026-06-14T18:29:34.981Z","orbitClass":"GEO"},{"id":"63361","noradId":"63361","name":"TIANLIAN 2-04","line1":"1 63361U 25062A   26165.41931258 -.00000124  00000+0  00000+0 0  9993","line2":"2 63361   4.3821 274.4821 0031742  10.3628 208.8780  1.00271692  4571","kind":"satellite","owner":"China (CNSA)","country":"China (CNSA)","countryCode":"PRC","objectType":"PAYLOAD","intlDesignator":"2025-062A","launchDate":"2025-03-26","periodMinutes":1436.1,"inclinationDeg":4.38,"apogeeKm":35920,"perigeeKm":35653,"source":"offline","sourceUrl":"https://celestrak.org/NORAD/elements/gp.php?GROUP=geo&FORMAT=tle","tleEpochUtc":"2026-06-14T10:03:48.606Z","orbitClass":"GEO"},{"id":"63397","noradId":"63397","name":"TJS-16","line1":"1 63397U 25064A   26165.72641623 -.00000100  00000+0  00000+0 0  9996","line2":"2 63397   1.0918  81.4683 0003354 288.7464 314.9259  1.00271304  4367","kind":"satellite","owner":"China (CNSA)","country":"China (CNSA)","countryCode":"PRC","objectType":"PAYLOAD","intlDesignator":"2025-064A","launchDate":"2025-03-29","periodMinutes":1436.1,"inclinationDeg":1.09,"apogeeKm":35801,"perigeeKm":35772,"source":"offline","sourceUrl":"https://celestrak.org/NORAD/elements/gp.php?GROUP=geo&FORMAT=tle","tleEpochUtc":"2026-06-14T17:26:02.362Z","orbitClass":"GEO"},{"id":"63524","noradId":"63524","name":"TJS-17","line1":"1 63524U 25073A   26165.71120891 -.00000064  00000+0  00000+0 0  9995","line2":"2 63524   1.0576  82.7133 0002078 295.5126 305.3480  1.00271885  4269","kind":"satellite","owner":"China (CNSA)","country":"China (CNSA)","countryCode":"PRC","objectType":"PAYLOAD","intlDesignator":"2025-073A","launchDate":"2025-04-10","periodMinutes":1436.1,"inclinationDeg":1.05,"apogeeKm":35795,"perigeeKm":35778,"source":"offline","sourceUrl":"https://celestrak.org/NORAD/elements/gp.php?GROUP=geo&FORMAT=tle","tleEpochUtc":"2026-06-14T17:04:08.449Z","orbitClass":"GEO"},{"id":"63662","noradId":"63662","name":"TIANLIAN 2-05","line1":"1 63662U 25084A   26165.62142457  .00000134  00000+0  00000+0 0  9999","line2":"2 63662   4.4579 279.8661 0003091 146.2268  80.8988  1.00269233  4354","kind":"satellite","owner":"China (CNSA)","country":"China (CNSA)","countryCode":"PRC","objectType":"PAYLOAD","intlDesignator":"2025-084A","launchDate":"2025-04-27","periodMinutes":1436.14,"inclinationDeg":4.46,"apogeeKm":35801,"perigeeKm":35774,"source":"offline","sourceUrl":"https://celestrak.org/NORAD/elements/gp.php?GROUP=geo&FORMAT=tle","tleEpochUtc":"2026-06-14T14:54:51.082Z","orbitClass":"GEO"},{"id":"63924","noradId":"63924","name":"TJS-19","line1":"1 63924U 25097A   26165.75851640 -.00000270  00000+0  00000+0 0  9991","line2":"2 63924   3.2906 317.4031 0002317 241.3714 118.5316  1.00266243  4115","kind":"satellite","owner":"China (CNSA)","country":"China (CNSA)","countryCode":"PRC","objectType":"PAYLOAD","intlDesignator":"2025-097A","launchDate":"2025-05-12","periodMinutes":1436.17,"inclinationDeg":3.29,"apogeeKm":35798,"perigeeKm":35778,"source":"offline","sourceUrl":"https://celestrak.org/NORAD/elements/gp.php?GROUP=geo&FORMAT=tle","tleEpochUtc":"2026-06-14T18:12:15.816Z","orbitClass":"GEO"},{"id":"64062","noradId":"64062","name":"CHINASAT 3B","line1":"1 64062U 25106A   26165.72184355 -.00000039  00000+0  00000+0 0  9998","line2":"2 64062   0.0191  82.6045 0002910  42.5518 205.0456  1.00270428  4036","kind":"satellite","owner":"China (CNSA)","country":"China (CNSA)","countryCode":"PRC","objectType":"PAYLOAD","intlDesignator":"2025-106A","launchDate":"2025-05-20","periodMinutes":1436.11,"inclinationDeg":0.04,"apogeeKm":35799,"perigeeKm":35775,"source":"offline","sourceUrl":"https://celestrak.org/NORAD/elements/gp.php?GROUP=geo&FORMAT=tle","tleEpochUtc":"2026-06-14T17:19:27.282Z","orbitClass":"GEO"},{"id":"64290","noradId":"64290","name":"SXM-10","line1":"1 64290U 25122A   26165.59438444 -.00000010  00000+0  00000+0 0  9994","line2":"2 64290   0.0176  17.4386 0001668 347.0470 356.2189  1.00274164  3655","kind":"satellite","owner":"United States","country":"United States","countryCode":"US","objectType":"PAYLOAD","intlDesignator":"2025-122A","launchDate":"2025-06-07","periodMinutes":1436.08,"inclinationDeg":0.02,"apogeeKm":35793,"perigeeKm":35779,"source":"offline","sourceUrl":"https://celestrak.org/NORAD/elements/gp.php?GROUP=geo&FORMAT=tle","tleEpochUtc":"2026-06-14T14:15:54.815Z","orbitClass":"GEO"},{"id":"64467","noradId":"64467","name":"COSMOS 2589","line1":"1 64467U 25131A   26165.75990553 -.00000284  00000+0  00000+0 0  9995","line2":"2 64467   0.0377  81.7012 0000384 104.6528  88.2208  1.00268355  3535","kind":"satellite","owner":"Russia","country":"Russia","countryCode":"CIS","objectType":"PAYLOAD","intlDesignator":"2025-131A","launchDate":"2025-06-19","periodMinutes":1436.23,"inclinationDeg":0.04,"apogeeKm":35792,"perigeeKm":35786,"source":"offline","sourceUrl":"https://celestrak.org/NORAD/elements/gp.php?GROUP=geo&FORMAT=tle","tleEpochUtc":"2026-06-14T18:14:15.837Z","orbitClass":"GEO"},{"id":"64470","noradId":"64470","name":"CHINASAT 9C","line1":"1 64470U 25132A   26165.61575279  .00000000  00000+0  00000+0 0  9994","line2":"2 64470   0.0177 354.1030 0002523  88.5367 134.1487  1.00268334  4125","kind":"satellite","owner":"China (CNSA)","country":"China (CNSA)","countryCode":"PRC","objectType":"PAYLOAD","intlDesignator":"2025-132A","launchDate":"2025-06-20","periodMinutes":1436.12,"inclinationDeg":0.02,"apogeeKm":35798,"perigeeKm":35776,"source":"offline","sourceUrl":"https://celestrak.org/NORAD/elements/gp.php?GROUP=geo&FORMAT=tle","tleEpochUtc":"2026-06-14T14:46:41.041Z","orbitClass":"GEO"},{"id":"64723","noradId":"64723","name":"MTG-S1","line1":"1 64723U 25143A   26165.61674455 -.00000025  00000+0  00000+0 0  9991","line2":"2 64723   0.6054 338.3400 0000986  11.0301 132.0992  1.00271769  3393","kind":"satellite","owner":"EUME","country":"EUME","countryCode":"EUME","objectType":"PAYLOAD","intlDesignator":"2025-143A","launchDate":"2025-07-01","periodMinutes":1436.1,"inclinationDeg":0.61,"apogeeKm":35791,"perigeeKm":35783,"source":"offline","sourceUrl":"https://celestrak.org/NORAD/elements/gp.php?GROUP=geo&FORMAT=tle","tleEpochUtc":"2026-06-14T14:48:06.729Z","orbitClass":"GEO"},{"id":"64784","noradId":"64784","name":"DROR 1","line1":"1 64784U 25148A   26165.61665788 -.00000028  00000+0  00000+0 0  9995","line2":"2 64784   0.0284  56.5114 0002532 331.6474  92.7478  1.00271731  3278","kind":"satellite","owner":"ISRA","country":"ISRA","countryCode":"ISRA","objectType":"PAYLOAD","intlDesignator":"2025-148A","launchDate":"2025-07-13","periodMinutes":1436.1,"inclinationDeg":0.02,"apogeeKm":35797,"perigeeKm":35776,"source":"offline","sourceUrl":"https://celestrak.org/NORAD/elements/gp.php?GROUP=geo&FORMAT=tle","tleEpochUtc":"2026-06-14T14:47:59.240Z","orbitClass":"GEO"},{"id":"65486","noradId":"65486","name":"SHIYAN-29","line1":"1 65486U 25196A   26160.07536391 -.00000259  00000+0  00000+0 0  9996","line2":"2 65486  28.8121  18.6391 0010972 171.7452 188.2752  1.00256520  2799","kind":"satellite","owner":"China","country":"China (CNSA)","countryCode":"PRC","objectType":"PAYLOAD","intlDesignator":"2025-196A","launchDate":"2025-09-05","periodMinutes":1436.32,"inclinationDeg":28.81,"apogeeKm":35837,"perigeeKm":35745,"source":"offline","sourceUrl":"https://celestrak.org/NORAD/elements/gp.php?GROUP=geo&FORMAT=tle","tleEpochUtc":"2026-06-09T01:48:31.441Z","orbitClass":"GEO"},{"id":"65588","noradId":"65588","name":"NUSANTARA LIMA (NUSANTARA 5)","line1":"1 65588U 25205A   26165.56847660 -.00000351  00000+0  00000+0 0  9996","line2":"2 65588   0.0403 135.6856 0000749 200.0914 244.6073  1.00288602  2691","kind":"satellite","owner":"INDO","country":"INDO","countryCode":"INDO","objectType":"PAYLOAD","intlDesignator":"2025-205A","launchDate":"2025-09-12","periodMinutes":1436.16,"inclinationDeg":0.05,"apogeeKm":35788,"perigeeKm":35788,"source":"offline","sourceUrl":"https://celestrak.org/NORAD/elements/gp.php?GROUP=geo&FORMAT=tle","tleEpochUtc":"2026-06-14T13:38:36.378Z","orbitClass":"GEO"},{"id":"66142","noradId":"66142","name":"TJS-20","line1":"1 66142U 25238A   26165.48714346  .00000035  00000+0  00000+0 0  9992","line2":"2 66142   5.4758 299.5661 0004502 162.0999  38.9141  1.00273665  2306","kind":"satellite","owner":"China (CNSA)","country":"China (CNSA)","countryCode":"PRC","objectType":"PAYLOAD","intlDesignator":"2025-238A","launchDate":"2025-10-23","periodMinutes":1436.07,"inclinationDeg":5.48,"apogeeKm":35805,"perigeeKm":35767,"source":"offline","sourceUrl":"https://celestrak.org/NORAD/elements/gp.php?GROUP=geo&FORMAT=tle","tleEpochUtc":"2026-06-14T11:41:29.194Z","orbitClass":"GEO"},{"id":"66311","noradId":"66311","name":"CMS-03 (GSAT-7R)","line1":"1 66311U 25249B   26165.56077211  .00000000  00000+0  00000+0 0  9996","line2":"2 66311   0.0179 357.2980 0001482  83.5035  97.9228  1.00270224  2321","kind":"satellite","owner":"India (ISRO)","country":"India (ISRO)","countryCode":"IND","objectType":"PAYLOAD","intlDesignator":"2025-249B","launchDate":"2025-11-02","periodMinutes":1436.11,"inclinationDeg":0.01,"apogeeKm":35793,"perigeeKm":35780,"source":"offline","sourceUrl":"https://celestrak.org/NORAD/elements/gp.php?GROUP=geo&FORMAT=tle","tleEpochUtc":"2026-06-14T13:27:30.710Z","orbitClass":"GEO"},{"id":"66454","noradId":"66454","name":"VIASAT-3 F2","line1":"1 66454U 25261A   26165.60175115 -.00000227  00000+0  00000+0 0  9997","line2":"2 66454   0.0513 158.2746 0000136 130.5402 111.7385  1.00271296  2763","kind":"satellite","owner":"United States","country":"United States","countryCode":"US","objectType":"PAYLOAD","intlDesignator":"2025-261A","launchDate":"2025-11-14","periodMinutes":1436.14,"inclinationDeg":0.04,"apogeeKm":35788,"perigeeKm":35787,"source":"offline","sourceUrl":"https://celestrak.org/NORAD/elements/gp.php?GROUP=geo&FORMAT=tle","tleEpochUtc":"2026-06-14T14:26:31.299Z","orbitClass":"GEO"},{"id":"66549","noradId":"66549","name":"SHIJIAN-28 (SJ-28)","line1":"1 66549U 25277A   26165.65350999 -.00000349  00000+0  00000+0 0  9994","line2":"2 66549   4.5450 272.1762 0000816 348.3379 354.4501  1.00263814  2121","kind":"satellite","owner":"China (CNSA)","country":"China (CNSA)","countryCode":"PRC","objectType":"PAYLOAD","intlDesignator":"2025-277A","launchDate":"2025-11-30","periodMinutes":1436.2,"inclinationDeg":4.55,"apogeeKm":35792,"perigeeKm":35785,"source":"offline","sourceUrl":"https://celestrak.org/NORAD/elements/gp.php?GROUP=geo&FORMAT=tle","tleEpochUtc":"2026-06-14T15:41:03.263Z","orbitClass":"GEO"},{"id":"66990","noradId":"66990","name":"TJS-22","line1":"1 66990U 25290A   26164.88498279  .00000004  00000+0  00000+0 0  9994","line2":"2 66990   1.5364 286.5245 0001907 330.6988  30.0313  1.00273078  1994","kind":"satellite","owner":"China (CNSA)","country":"China (CNSA)","countryCode":"PRC","objectType":"PAYLOAD","intlDesignator":"2025-290A","launchDate":"2025-12-09","periodMinutes":1436.08,"inclinationDeg":1.54,"apogeeKm":35794,"perigeeKm":35778,"source":"offline","sourceUrl":"https://celestrak.org/NORAD/elements/gp.php?GROUP=geo&FORMAT=tle","tleEpochUtc":"2026-06-13T21:14:22.513Z","orbitClass":"GEO"},{"id":"67226","noradId":"67226","name":"TJS-23","line1":"1 67226U 25306A   26164.61166610  .00000031  00000+0  00000+0 0  9997","line2":"2 67226   5.5959 297.5066 0005367 169.3780 190.7656  1.00274515  1851","kind":"satellite","owner":"China (CNSA)","country":"China (CNSA)","countryCode":"PRC","objectType":"PAYLOAD","intlDesignator":"2025-306A","launchDate":"2025-12-20","periodMinutes":1436.06,"inclinationDeg":5.6,"apogeeKm":35808,"perigeeKm":35764,"source":"offline","sourceUrl":"https://celestrak.org/NORAD/elements/gp.php?GROUP=geo&FORMAT=tle","tleEpochUtc":"2026-06-13T14:40:47.951Z","orbitClass":"GEO"},{"id":"67246","noradId":"67246","name":"FENGYUN 4C","line1":"1 67246U 25312A   26165.57246328 -.00000316  00000+0  00000+0 0  9994","line2":"2 67246   0.0411 145.6788 0000579  63.3294  32.9401  1.00270360  1751","kind":"satellite","owner":"China (CNSA)","country":"China (CNSA)","countryCode":"PRC","objectType":"PAYLOAD","intlDesignator":"2025-312A","launchDate":"2025-12-26","periodMinutes":1436.13,"inclinationDeg":0.04,"apogeeKm":35790,"perigeeKm":35784,"source":"offline","sourceUrl":"https://celestrak.org/NORAD/elements/gp.php?GROUP=geo&FORMAT=tle","tleEpochUtc":"2026-06-14T13:44:20.827Z","orbitClass":"GEO"},{"id":"67302","noradId":"67302","name":"SHIJIAN-29A (SJ-29A)","line1":"1 67302U 25315A   26165.76105148 -.00000063  00000+0  00000+0 0  9994","line2":"2 67302   3.3915  95.1686 0003095  25.5358 129.5319  1.00269549  1592","kind":"satellite","owner":"China (CNSA)","country":"China (CNSA)","countryCode":"PRC","objectType":"PAYLOAD","intlDesignator":"2025-315A","launchDate":"2025-12-30","periodMinutes":1436.13,"inclinationDeg":3.39,"apogeeKm":35800,"perigeeKm":35774,"source":"offline","sourceUrl":"https://celestrak.org/NORAD/elements/gp.php?GROUP=geo&FORMAT=tle","tleEpochUtc":"2026-06-14T18:15:54.847Z","orbitClass":"GEO"},{"id":"67403","noradId":"67403","name":"SHIJIAN-29B (SJ-29B)","line1":"1 67403U 25315C   26165.76504507 -.00000064  00000+0  00000+0 0  9999","line2":"2 67403   3.3904  95.1610 0003698  33.0793 123.4787  1.00269354  1669","kind":"satellite","owner":"China (CNSA)","country":"China (CNSA)","countryCode":"PRC","objectType":"PAYLOAD","intlDesignator":"2025-315C","launchDate":"2025-12-30","periodMinutes":1436.13,"inclinationDeg":3.39,"apogeeKm":35803,"perigeeKm":35772,"source":"offline","sourceUrl":"https://celestrak.org/NORAD/elements/gp.php?GROUP=geo&FORMAT=tle","tleEpochUtc":"2026-06-14T18:21:39.894Z","orbitClass":"GEO"},{"id":"67756","noradId":"67756","name":"ELEKTRO-L 5","line1":"1 67756U 26028A   26165.06004312 -.00000088  00000+0  00000+0 0  9990","line2":"2 67756   0.2571 310.4463 0001751 180.7679 228.8062  1.00271153  1224","kind":"satellite","owner":"Russia","country":"Russia","countryCode":"CIS","objectType":"PAYLOAD","intlDesignator":"2026-028A","launchDate":"2026-02-12","periodMinutes":1436.11,"inclinationDeg":0.26,"apogeeKm":35794,"perigeeKm":35779,"source":"offline","sourceUrl":"https://celestrak.org/NORAD/elements/gp.php?GROUP=geo&FORMAT=tle","tleEpochUtc":"2026-06-14T01:26:27.725Z","orbitClass":"GEO"},{"id":"67757","noradId":"67757","name":"JAM-E JAM 1","line1":"1 67757U 26028B   26165.62411125  .00000163  00000+0  00000+0 0  9990","line2":"2 67757   0.2657 301.5654 0001212 299.3294 280.6337  1.00274157  1098","kind":"satellite","owner":"IRAN","country":"IRAN","countryCode":"IRAN","objectType":"PAYLOAD","intlDesignator":"2026-028B","launchDate":"2026-02-12","periodMinutes":1436.07,"inclinationDeg":0.27,"apogeeKm":35791,"perigeeKm":35781,"source":"offline","sourceUrl":"https://celestrak.org/NORAD/elements/gp.php?GROUP=geo&FORMAT=tle","tleEpochUtc":"2026-06-14T14:58:43.212Z","orbitClass":"GEO"}